[
  {
    "COMMENT": "GENERATED VIA SPACETRACK.ORG API",
    "ORIGINATOR": "18 SPCS",
    "NORAD_CAT_ID": "43682",
    "OBJECT_NAME": "H-2A R/B",
    "OBJECT_TYPE": "ROCKET BODY",
    "CLASSIFICATION_TYPE": "U",
    "INTLDES": "18084L",
    "EPOCH": "2023-04-25 11:42:52",
    "EPOCH_MICROSECONDS": "931232",
    "MEAN_MOTION": "15.07968531",
    "ECCENTRICITY": "0.005026",
    "INCLINATION": "98.8987",
    "RA_OF_ASC_NODE": "131.3365",
    "ARG_OF_PERICENTER": "318.7089",
    "MEAN_ANOMALY": "41.0339",
    "EPHEMERIS_TYPE": "0",
    "ELEMENT_SET_NO": "999",
    "REV_AT_EPOCH": "24627",
    "BSTAR": "0.00035223",
    "MEAN_MOTION_DOT": "0.00005488",
    "MEAN_MOTION_DDOT": "0",
    "FILE": "3894092",
    "TLE_LINE0": "0 H-2A R/B",
    "TLE_LINE1": "1 43682U 18084L   23115.48811263  .00005488  00000-0  35223-3 0  9992",
    "TLE_LINE2": "2 43682  98.8987 131.3365 0050260 318.7089  41.0339 15.07968531246271",
    "OBJECT_ID": "2018-084L",
    "OBJECT_NUMBER": "43682",
    "SEMIMAJOR_AXIS": "6920.545",
    "PERIOD": "95.493",
    "APOGEE": "577.193",
    "PERIGEE": "507.628",
    "DECAYED": "0"
  },
  {
    "COMMENT": "GENERATED VIA SPACETRACK.ORG API",
    "ORIGINATOR": "18 SPCS",
    "NORAD_CAT_ID": "43682",
    "OBJECT_NAME": "H-2A R/B",
    "OBJECT_TYPE": "ROCKET BODY",
    "CLASSIFICATION_TYPE": "U",
    "INTLDES": "18084L",
    "EPOCH": "2023-04-26 11:36:07",
    "EPOCH_MICROSECONDS": "828416",
    "MEAN_MOTION": "15.07979055",
    "ECCENTRICITY": "0.005021",
    "INCLINATION": "98.8986",
    "RA_OF_ASC_NODE": "132.4881",
    "ARG_OF_PERICENTER": "315.3006",
    "MEAN_ANOMALY": "44.4176",
    "EPHEMERIS_TYPE": "0",
    "ELEMENT_SET_NO": "999",
    "REV_AT_EPOCH": "24642",
    "BSTAR": "0.0002967",
    "MEAN_MOTION_DOT": "0.00004609",
    "MEAN_MOTION_DDOT": "0",
    "FILE": "3894260",
    "TLE_LINE0": "0 H-2A R/B",
    "TLE_LINE1": "1 43682U 18084L   23116.48342394  .00004609  00000-0  29670-3 0  9990",
    "TLE_LINE2": "2 43682  98.8986 132.4881 0050210 315.3006  44.4176 15.07979055246428",
    "OBJECT_ID": "2018-084L",
    "OBJECT_NUMBER": "43682",
    "SEMIMAJOR_AXIS": "6920.513",
    "PERIOD": "95.492",
    "APOGEE": "577.126",
    "PERIGEE": "507.630",
    "DECAYED": "0"
  },
  {
    "COMMENT": "GENERATED VIA SPACETRACK.ORG API",
    "ORIGINATOR": "18 SPCS",
    "NORAD_CAT_ID": "43682",
    "OBJECT_NAME": "H-2A R/B",
    "OBJECT_TYPE": "ROCKET BODY",
    "CLASSIFICATION_TYPE": "U",
    "INTLDES": "18084L",
    "EPOCH": "2023-04-27 11:29:22",
    "EPOCH_MICROSECONDS": "202016",
    "MEAN_MOTION": "15.07990037",
    "ECCENTRICITY": "0.0050215",
    "INCLINATION": "98.8984",
    "RA_OF_ASC_NODE": "133.6394",
    "ARG_OF_PERICENTER": "311.8903",
    "MEAN_ANOMALY": "47.8042",
    "EPHEMERIS_TYPE": "0",
    "ELEMENT_SET_NO": "999",
    "REV_AT_EPOCH": "24657",
    "BSTAR": "0.00034766",
    "MEAN_MOTION_DOT": "0.00005419",
    "MEAN_MOTION_DDOT": "0",
    "FILE": "3894751",
    "TLE_LINE0": "0 H-2A R/B",
    "TLE_LINE1": "1 43682U 18084L   23117.47872919  .00005419  00000-0  34766-3 0  9993",
    "TLE_LINE2": "2 43682  98.8984 133.6394 0050215 311.8903  47.8042 15.07990037246578",
    "OBJECT_ID": "2018-084L",
    "OBJECT_NUMBER": "43682",
    "SEMIMAJOR_AXIS": "6920.480",
    "PERIOD": "95.491",
    "APOGEE": "577.096",
    "PERIGEE": "507.593",
    "DECAYED": "0"
  },
  {
    "COMMENT": "GENERATED VIA SPACETRACK.ORG API",
    "ORIGINATOR": "18 SPCS",
    "NORAD_CAT_ID": "43682",
    "OBJECT_NAME": "H-2A R/B",
    "OBJECT_TYPE": "ROCKET BODY",
    "CLASSIFICATION_TYPE": "U",
    "INTLDES": "18084L",
    "EPOCH": "2023-04-28 00:13:45",
    "EPOCH_MICROSECONDS": "613344",
    "MEAN_MOTION": "15.0799701",
    "ECCENTRICITY": "0.0050225",
    "INCLINATION": "98.8982",
    "RA_OF_ASC_NODE": "134.2535",
    "ARG_OF_PERICENTER": "310.0781",
    "MEAN_ANOMALY": "49.6044",
    "EPHEMERIS_TYPE": "0",
    "ELEMENT_SET_NO": "999",
    "REV_AT_EPOCH": "24665",
    "BSTAR": "0.0004031",
    "MEAN_MOTION_DOT": "0.00006299",
    "MEAN_MOTION_DDOT": "0",
    "FILE": "3895173",
    "TLE_LINE0": "0 H-2A R/B",
    "TLE_LINE1": "1 43682U 18084L   23118.00955571  .00006299  00000-0  40310-3 0  9998",
    "TLE_LINE2": "2 43682  98.8982 134.2535 0050225 310.0781  49.6044 15.07997010246655",
    "OBJECT_ID": "2018-084L",
    "OBJECT_NUMBER": "43682",
    "SEMIMAJOR_AXIS": "6920.458",
    "PERIOD": "95.491",
    "APOGEE": "577.081",
    "PERIGEE": "507.565",
    "DECAYED": "0"
  },
  {
    "COMMENT": "GENERATED VIA SPACETRACK.ORG API",
    "ORIGINATOR": "18 SPCS",
    "NORAD_CAT_ID": "43682",
    "OBJECT_NAME": "H-2A R/B",
    "OBJECT_TYPE": "ROCKET BODY",
    "CLASSIFICATION_TYPE": "U",
    "INTLDES": "18084L",
    "EPOCH": "2023-04-28 11:22:35",
    "EPOCH_MICROSECONDS": "952672",
    "MEAN_MOTION": "15.08001731",
    "ECCENTRICITY": "0.0050219",
    "INCLINATION": "98.8982",
    "RA_OF_ASC_NODE": "134.7907",
    "ARG_OF_PERICENTER": "308.5018",
    "MEAN_ANOMALY": "51.1707",
    "EPHEMERIS_TYPE": "0",
    "ELEMENT_SET_NO": "999",
    "REV_AT_EPOCH": "24672",
    "BSTAR": "0.00037572",
    "MEAN_MOTION_DOT": "0.00005865",
    "MEAN_MOTION_DDOT": "0",
    "FILE": "3895770",
    "TLE_LINE0": "0 H-2A R/B",
    "TLE_LINE1": "1 43682U 18084L   23118.47402723  .00005865  00000-0  37572-3 0  9999",
    "TLE_LINE2": "2 43682  98.8982 134.7907 0050219 308.5018  51.1707 15.08001731246720",
    "OBJECT_ID": "2018-084L",
    "OBJECT_NUMBER": "43682",
    "SEMIMAJOR_AXIS": "6920.444",
    "PERIOD": "95.491",
    "APOGEE": "577.063",
    "PERIGEE": "507.555",
    "DECAYED": "0"
  },
  {
    "COMMENT": "GENERATED VIA SPACETRACK.ORG API",
    "ORIGINATOR": "18 SPCS",
    "NORAD_CAT_ID": "43682",
    "OBJECT_NAME": "H-2A R/B",
    "OBJECT_TYPE": "ROCKET BODY",
    "CLASSIFICATION_TYPE": "U",
    "INTLDES": "18084L",
    "EPOCH": "2023-04-29 11:15:49",
    "EPOCH_MICROSECONDS": "11264",
    "MEAN_MOTION": "15.08014691",
    "ECCENTRICITY": "0.005024",
    "INCLINATION": "98.8979",
    "RA_OF_ASC_NODE": "135.9421",
    "ARG_OF_PERICENTER": "305.1476",
    "MEAN_ANOMALY": "54.5046",
    "EPHEMERIS_TYPE": "0",
    "ELEMENT_SET_NO": "999",
    "REV_AT_EPOCH": "24687",
    "BSTAR": "0.0004023",
    "MEAN_MOTION_DOT": "0.00006289",
    "MEAN_MOTION_DDOT": "0",
    "FILE": "3896399",
    "TLE_LINE0": "0 H-2A R/B",
    "TLE_LINE1": "1 43682U 18084L   23119.46931726  .00006289  00000-0  40230-3 0  9995",
    "TLE_LINE2": "2 43682  98.8979 135.9421 0050240 305.1476  54.5046 15.08014691246873",
    "OBJECT_ID": "2018-084L",
    "OBJECT_NUMBER": "43682",
    "SEMIMAJOR_AXIS": "6920.404",
    "PERIOD": "95.490",
    "APOGEE": "577.037",
    "PERIGEE": "507.501",
    "DECAYED": "0"
  },
  {
    "COMMENT": "GENERATED VIA SPACETRACK.ORG API",
    "ORIGINATOR": "18 SPCS",
    "NORAD_CAT_ID": "43682",
    "OBJECT_NAME": "H-2A R/B",
    "OBJECT_TYPE": "ROCKET BODY",
    "CLASSIFICATION_TYPE": "U",
    "INTLDES": "18084L",
    "EPOCH": "2023-04-30 12:44:34",
    "EPOCH_MICROSECONDS": "168992",
    "MEAN_MOTION": "15.08028227",
    "ECCENTRICITY": "0.0050195",
    "INCLINATION": "98.8978",
    "RA_OF_ASC_NODE": "137.1702",
    "ARG_OF_PERICENTER": "301.5938",
    "MEAN_ANOMALY": "58.0391",
    "EPHEMERIS_TYPE": "0",
    "ELEMENT_SET_NO": "999",
    "REV_AT_EPOCH": "24703",
    "BSTAR": "0.0003989",
    "MEAN_MOTION_DOT": "0.00006237",
    "MEAN_MOTION_DDOT": "0",
    "FILE": "3897227",
    "TLE_LINE0": "0 H-2A R/B",
    "TLE_LINE1": "1 43682U 18084L   23120.53095103  .00006237  00000-0  39890-3 0  9998",
    "TLE_LINE2": "2 43682  98.8978 137.1702 0050195 301.5938  58.0391 15.08028227247031",
    "OBJECT_ID": "2018-084L",
    "OBJECT_NUMBER": "43682",
    "SEMIMAJOR_AXIS": "6920.363",
    "PERIOD": "95.489",
    "APOGEE": "576.965",
    "PERIGEE": "507.491",
    "DECAYED": "0"
  },
  {
    "COMMENT": "GENERATED VIA SPACETRACK.ORG API",
    "ORIGINATOR": "18 SPCS",
    "NORAD_CAT_ID": "43682",
    "OBJECT_NAME": "H-2A R/B",
    "OBJECT_TYPE": "ROCKET BODY",
    "CLASSIFICATION_TYPE": "U",
    "INTLDES": "18084L",
    "EPOCH": "2023-04-30 14:20:06",
    "EPOCH_MICROSECONDS": "959328",
    "MEAN_MOTION": "15.08029091",
    "ECCENTRICITY": "0.0050178",
    "INCLINATION": "98.898",
    "RA_OF_ASC_NODE": "137.2469",
    "ARG_OF_PERICENTER": "301.3348",
    "MEAN_ANOMALY": "58.297",
    "EPHEMERIS_TYPE": "0",
    "ELEMENT_SET_NO": "999",
    "REV_AT_EPOCH": "24704",
    "BSTAR": "0.00039873",
    "MEAN_MOTION_DOT": "0.00006235",
    "MEAN_MOTION_DDOT": "0",
    "FILE": "3897442",
    "TLE_LINE0": "0 H-2A R/B",
    "TLE_LINE1": "1 43682U 18084L   23120.59730277  .00006235  00000-0  39873-3 0  9991",
    "TLE_LINE2": "2 43682  98.8980 137.2469 0050178 301.3348  58.2970 15.08029091247045",
    "OBJECT_ID": "2018-084L",
    "OBJECT_NUMBER": "43682",
    "SEMIMAJOR_AXIS": "6920.360",
    "PERIOD": "95.489",
    "APOGEE": "576.950",
    "PERIGEE": "507.500",
    "DECAYED": "0"
  },
  {
    "COMMENT": "GENERATED VIA SPACETRACK.ORG API",
    "ORIGINATOR": "18 SPCS",
    "NORAD_CAT_ID": "43682",
    "OBJECT_NAME": "H-2A R/B",
    "OBJECT_TYPE": "ROCKET BODY",
    "CLASSIFICATION_TYPE": "U",
    "INTLDES": "18084L",
    "EPOCH": "2023-05-01 14:13:18",
    "EPOCH_MICROSECONDS": "516288",
    "MEAN_MOTION": "15.08041147",
    "ECCENTRICITY": "0.0050077",
    "INCLINATION": "98.8977",
    "RA_OF_ASC_NODE": "138.3983",
    "ARG_OF_PERICENTER": "297.8806",
    "MEAN_ANOMALY": "61.735",
    "EPHEMERIS_TYPE": "0",
    "ELEMENT_SET_NO": "999",
    "REV_AT_EPOCH": "24719",
    "BSTAR": "0.00037242",
    "MEAN_MOTION_DOT": "0.00005818",
    "MEAN_MOTION_DDOT": "0",
    "FILE": "3898258",
    "TLE_LINE0": "0 H-2A R/B",
    "TLE_LINE1": "1 43682U 18084L   23121.59257542  .00005818  00000-0  37242-3 0  9995",
    "TLE_LINE2": "2 43682  98.8977 138.3983 0050077 297.8806  61.7350 15.08041147247193",
    "OBJECT_ID": "2018-084L",
    "OBJECT_NUMBER": "43682",
    "SEMIMAJOR_AXIS": "6920.323",
    "PERIOD": "95.488",
    "APOGEE": "576.843",
    "PERIGEE": "507.533",
    "DECAYED": "0"
  }
]